ONEWEB-0201             
1 48241U 21031AH  21238.58334491  .00023578  00000-0  51561-1 0  9993
2 48241  87.9473 278.6719 0001338 120.3119 300.4306 13.28426000  3332
ONEWEB-0207             
1 48242U 21031AJ  21238.58334491  .00000013  00000-0  00000-0 0  9994
2 48242  87.9365 278.6604 0000849  81.6499 343.1556 13.26976114  3315
ONEWEB-0208             
1 48243U 21031AK  21238.58334491  .00000013  00000-0  00000-0 0  9995
2 48243  87.9437 278.6702 0001186 160.1226   2.9987 13.29262636  3319
ONEWEB-0200             
1 48244U 21031AL  21238.58334491  .00022011  00000-0  53568-1 0  9996
2 48244  87.9212 278.6508 0001578 105.1604 251.0391 13.21278953  3305
ONEWEB-0217             
1 48245U 21031AM  21238.58334491  .00000013  00000-0  00000-0 0  9997
2 48245  87.9212 278.6573 0000833 193.5017 167.3679 13.22188933  3307
ONEWEB-0211             
1 48767U 21045A   21238.58334491  .00000016  00000-0  00000-0 0  9994
2 48767  87.7674 248.6465 0006670 347.1827  90.8636 13.88685704  3509
ONEWEB-0223             
1 48768U 21045B   21238.58334491  .00000015  00000-0  00000-0 0  9994
2 48768  87.7642 248.6135 0008627 314.9038 125.4509 13.80790853  3451
ONEWEB-0230             
1 48769U 21045C   21238.58334491 -.00032125  00000-0 -14018-1 0  9999
2 48769  87.8416 248.5906 0005100 326.7998  91.2770 14.24230594  3502
ONEWEB-0237             
1 48770U 21045D   21238.58334491 -.00029675  00000-0 -26963-1 0  9999
2 48770  87.6921 248.4833 0010064 331.9828 231.0470 13.83709432  3446
ONEWEB-0235             
1 48771U 21045E   21238.58334491 -.00025925  00000-0 -24108-1 0  9993
2 48771  87.6630 248.6234 0004698 353.2958 294.8645 13.82347585  3467
ONEWEB-0242             
1 48772U 21045F   21238.58334491  .00000016  00000-0  00000-0 0  9990
2 48772  87.7709 248.6351 0010356 342.5813  85.1053 13.86625493  3459
ONEWEB-0241             
1 48773U 21045G   21238.58334491  .00000015  00000-0  00000-0 0  9990
2 48773  87.7530 248.5921 0005053 330.6356 295.2718 13.75549079  3424
ONEWEB-0243             
1 48774U 21045H   21238.58334491 -.00031161  00000-0 -28340-1 0  9997
2 48774  87.6691 248.5147 0009847 336.3575 169.0794 13.83665159  3411
ONEWEB-0222             
1 48775U 21045J   21238.58334491 -.00030679  00000-0 -30119-1 0  9998
2 48775  87.7433 248.6212 0009353 329.5805 155.9529 13.79166097  3448
ONEWEB-0244             
1 48776U 21045K   21238.58334491 -.00032807  00000-0 -13516-1 0  9996
2 48776  87.8365 248.4634 0004743 342.0782 132.4358 14.27210341  3471
ONEWEB-0247             
1 48777U 21045L   21238.58334491 -.01162496  00000-0 -99191+0 0  9997
2 48777  87.7676 248.4420 0005663 333.8968  50.8664 13.90387641  3497
ONEWEB-0245             
1 48778U 21045M   21238.58334491  .00000016  00000-0  00000-0 0  9996
2 48778  87.7075 248.5720 0009962 333.2531  93.6938 13.82561185  3476
ONEWEB-0229             
1 48779U 21045N   21238.58334491 -.00030066  00000-0 -23361-1 0  9993
2 48779  87.6998 248.5289 0005874 346.5332 209.0350 13.92766424  3479
ONEWEB-0228             
1 48780U 21045P   21238.58334491  .00000015  00000-0  00000-0 0  9998
2 48780  87.7071 248.5170 0008437 321.6473 132.8802 13.75398949  3481
ONEWEB-0232             
1 48781U 21045Q   21238.58334491  .00000016  00000-0  00000-0 0  9990
2 48781  87.9717 248.5702 0008406 327.7938 290.7280 14.12159302  3553
ONEWEB-0231             
1 48782U 21045R   21238.58334491  .00000015  00000-0  00000-0 0  9990
2 48782  87.7433 248.5360 0008189 342.4512 177.5182 13.74444100  3437
ONEWEB-0234             
1 48783U 21045S   21238.58334491 -.00031564  00000-0 -22611-1 0  9999
2 48783  87.8784 248.6159 0007481 314.5019 155.7854 13.97377426  3537
ONEWEB-0238             
1 48784U 21045T   21238.58334491 -.00026457  00000-0 -26009-1 0  9990
2 48784  87.7426 248.5703 0008283 334.4667 296.1259 13.79062937  3420
ONEWEB-0240             
1 48785U 21045U   21238.58334491 -.00030621  00000-0 -28407-1 0  9993
2 48785  87.7322 248.6390 0006103 331.6608 195.7735 13.82512031  3435
ONEWEB-0246             
1 48786U 21045V   21238.58334491  .00000015  00000-0  00000-0 0  9994
2 48786  87.7149 248.5296 0006627  11.7506 124.3111 13.65870909  3462
ONEWEB-0210             
1 48787U 21045W   21238.58334491  .00000015  00000-0  00000-0 0  9995
2 48787  87.7550 248.5489 0009002 319.8010 286.6768 13.72857866  3437
ONEWEB-0214             
1 48788U 21045X   21238.58334491  .00000015  00000-0  00000-0 0  9996
2 48788  87.7367 248.5717 0005881 350.9086 220.7208 13.70564185  3433
ONEWEB-0221             
1 48789U 21045Y   21238.58334491  .00000015  00000-0  00000-0 0  9997
2 48789  87.7430 248.5945 0009154 307.8904 124.7049 13.75809837  3498
ONEWEB-0213             
1 48790U 21045Z   21238.58334491 -.01075612  00000-0 -89301+0 0  9997
2 48790  87.7770 248.6036 0009287 314.3434  44.6525 13.92244510  3496
ONEWEB-0212             
1 48791U 21045AA  21238.58334491  .00000016  00000-0  00000-0 0  9991
2 48791  87.7920 248.6230 0009943 319.5837 110.6930 13.86073225  3594
ONEWEB-0227             
1 48792U 21045AB  21238.58334491 -.00026760  00000-0 -26249-1 0  9992
2 48792  87.7051 248.5654 0006349 332.8744  52.9788 13.79202170  3461
ONEWEB-0226             
1 48793U 21045AC  21238.58334491  .00000015  00000-0  00000-0 0  9992
2 48793  87.7406 248.5438 0009806 349.8510 353.0225 13.75647403  3410
ONEWEB-0224             
1 48794U 21045AD  21238.58334491  .00000015  00000-0  00000-0 0  9993
2 48794  87.7861 248.5320 0006357 325.4712 275.0814 13.78030659  3473
ONEWEB-0233             
1 48795U 21045AE  21238.58334491  .00000015  00000-0  00000-0 0  9994
2 48795  87.7184 248.4878 0005921 353.3356 141.5747 13.73816820  3513
ONEWEB-0190             
1 48796U 21045AF  21238.58334491  .00000015  00000-0  00000-0 0  9995
2 48796  87.7467 248.5547 0009883 350.1183 359.5032 13.77618040  3444
ONEWEB-0236             
1 48797U 21045AG  21238.58334491  .00000015  00000-0  00000-0 0  9996
2 48797  87.7245 248.5225 0006672 358.7535 246.5417 13.65024188  3476
ONEWEB-0248             
1 48798U 21045AH  21238.58334491  .00000016  00000-0  00000-0 0  9998
2 48798  87.7578 248.6161 0007803 335.0978 215.1544 13.81892625  3494
ONEWEB-0225             
1 48799U 21045AJ  21238.58334491  .00000016  00000-0  00000-0 0  9999
2 48799  87.7748 248.6093 0006275 351.9430 158.0373 13.82444724  3466
ONEWEB-0215             
1 48800U 21045AK  21238.58334491  .00000015  00000-0  00000-0 0  9991
2 48800  87.7293 248.5846 0007435 347.0494 352.4206 13.69680948  3442
ONEWEB-0216             
1 48801U 21045AL  21238.58334491 -.00752785  00000-0 -90341+0 0  9998
2 48801  87.6609 248.5194 0006751 347.8885 192.9979 13.69772873  3477
ONEWEB-0239             
1 48802U 21045AM  21238.58334491 -.00025402  00000-0 -25184-1 0  9993
2 48802  87.6952 248.6635 0010448 338.4738  17.5399 13.78548104  3499
ONEWEB-0249             
1 48967U 21060A   21238.58334491 -.01440952  00000-0 -77277+0 0  9992
2 48967  87.6238 219.3006 0010501  82.6487  56.8151 14.16473099  3523
ONEWEB-0250             
1 48968U 21060B   21238.58334491 -.01492530  00000-0 -85065+0 0  9996
2 48968  87.5969 219.2861 0009484  67.2635  56.4446 14.13312945  3504
ONEWEB-0251             
1 48969U 21060C   21238.58334491 -.00060598  00000-0 -19286-2 0  9996
2 48969  87.4202 217.6615 0013457  79.1317  52.5883 15.32805032  3673
ONEWEB-0252             
1 48970U 21060D   21238.58334491 -.01443723  00000-0 -62728+0 0  9990
2 48970  87.6807 219.2473 0013669  77.4463 212.9411 14.27586654  3528
ONEWEB-0253             
1 48971U 21060E   21238.58334491 -.01429759  00000-0 -77161+0 0  9991
2 48971  87.6340 219.2807 0009349  64.9298 324.0509 14.16113539  3562
ONEWEB-0254             
1 48972U 21060F   21238.58334491 -.01431723  00000-0 -76241+0 0  9994
2 48972  87.6043 219.2832 0013632  81.3817 175.8810 14.16811298  3497
ONEWEB-0255             
1 48973U 21060G   21238.58334491 -.01446274  00000-0 -59417+0 0  9998
2 48973  87.6912 219.2440 0008576  72.5860 355.7181 14.30519462  3572
ONEWEB-0256             
1 48974U 21060H   21238.58334491 -.01494474  00000-0 -73368+0 0  9995
2 48974  87.6533 219.3178 0014331  75.7968 261.3050 14.21294758  3587
ONEWEB-0257             
1 48975U 21060J   21238.58334491 -.01481185  00000-0 -82948+0 0  9995
2 48975  87.5932 219.3014 0011694  66.4550  79.7766 14.14226721  3551
ONEWEB-0258             
1 48976U 21060K   21238.58334491 -.01479474  00000-0 -85656+0 0  9993
2 48976  87.5910 219.2799 0010587  71.1693  53.5725 14.12421569  3547
ONEWEB-0259             
1 48977U 21060L   21238.58334491 -.01487226  00000-0 -75902+0 0  9991
2 48977  87.6456 219.2956 0015051  78.9194  75.2630 14.19207763  3519
ONEWEB-0260             
1 48978U 21060M   21238.58334491 -.01490451  00000-0 -77668+0 0  9997
2 48978  87.6435 219.2968 0009340  66.8555 101.7913 14.18139126  3550
ONEWEB-0261             
1 48979U 21060N   21238.58334491 -.01427544  00000-0 -57621+0 0  9998
2 48979  87.7025 219.2299 0014167  76.5489 109.3305 14.31346201  3571
ONEWEB-0262             
1 48980U 21060P   21238.58334491 -.01474790  00000-0 -76930+0 0  9999
2 48980  87.6284 219.3122 0011401  76.2605 250.7222 14.18035934  3516
ONEWEB-0263             
1 48981U 21060Q   21238.58334491 -.01471941  00000-0 -84809+0 0  9999
2 48981  87.5908 219.2891 0010614  65.6895 329.3258 14.12666470  3509
ONEWEB-0264             
1 48982U 21060R   21238.58334491 -.01441511  00000-0 -81325+0 0  9990
2 48982  87.6000 219.2668 0012305  85.3816 307.9593 14.13727463  3546
ONEWEB-0265             
1 48983U 21060S   21238.58334491 -.00062121  00000-0 -15216-2 0  9995
2 48983  87.3989 217.4464 0009811  74.8363 316.5172 15.40994175  3627
ONEWEB-0266             
1 48984U 21060T   21238.58334491 -.01455773  00000-0 -81987+0 0  9991
2 48984  87.6013 219.2948 0013780  79.7071 282.4585 14.13845851  3552
